{"type": "FeatureCollection", "features": [ {"type": "Feature", "properties": {"norad_id": 30914, "name": "FENGYUN 1C DEB", "group": "fengyun-1c-debris", "lat": -14.822190212063562, "lon": 38.60863263823977, "alt_km": 1624.0173941802468, "timestamp": "2025-12-02T17:49:12.307433+00:00", "meta": {"OBJECT_NAME": "FENGYUN 1C DEB", "OBJECT_ID": "1999-025AZC", "EPOCH": "2025-12-02T09:29:53.909376", "MEAN_MOTION": 13.08754057, "ECCENTRICITY": 0.0515125, "INCLINATION": 99.9823, "RA_OF_ASC_NODE": 220.9551, "ARG_OF_PERICENTER": 17.8304, "MEAN_ANOMALY": 344.0164, "EPHEMERIS_TYPE": 0, "CLASSIFICATION_TYPE": "U", "NORAD_CAT_ID": 30914, "ELEMENT_SET_NO": 999, "REV_AT_EPOCH": 58940, "BSTAR": 0.0049741, "MEAN_MOTION_DOT": 3.217e-05, "MEAN_MOTION_DDOT": 0}, "tle": {"line1": "1 30914U 99025AZC 25336.39576284  .00003217  00000+0  49741-2 0  9994", "line2": "2 30914  99.9823 220.9551 0515125  17.8304 344.0164 13.08754057589403"}}, "geometry": {"type": "Point", "coordinates": [38.60863263823977, -14.822190212063562]}}, {"type": "Feature", "properties": {"norad_id": 30915, "name": "FENGYUN 1C DEB", "group": "fengyun-1c-debris", "lat": 54.48977014922848, "lon": 39.981972249855616, "alt_km": 833.2655642226773, "timestamp": "2025-12-02T17:49:12.307444+00:00", "meta": {"OBJECT_NAME": "FENGYUN 1C DEB", "OBJECT_ID": "1999-025AZD", "EPOCH": "2025-12-02T04:04:32.751264", "MEAN_MOTION": 14.24909084, "ECCENTRICITY": 0.00537911, "INCLINATION": 98.9429, "RA_OF_ASC_NODE": 52.1473, "ARG_OF_PERICENTER": 197.5553, "MEAN_ANOMALY": 162.3767, "EPHEMERIS_TYPE": 0, "CLASSIFICATION_TYPE": "U", "NORAD_CAT_ID": 30915, "ELEMENT_SET_NO": 999, "REV_AT_EPOCH": 96362, "BSTAR": 0.0018451139, "MEAN_MOTION_DOT": 4.333e-05, "MEAN_MOTION_DDOT": 0}, "tle": {"line1": "1 30915U 99025AZD 25336.16982351  .00004333  00000+0  18451-2 0  9990", "line2": "2 30915  98.9429  52.1473 0053791 197.5553 162.3767 14.24909084963622"}}, "geometry": {"type": "Point", "coordinates": [39.981972249855616, 54.48977014922848]}}, {"type": "Feature", "properties": {"norad_id": 30916, "name": "FENGYUN 1C DEB", "group": "fengyun-1c-debris", "lat": -34.97403464088691, "lon": 43.4695152269832, "alt_km": 834.210499159959, "timestamp": "2025-12-02T17:49:12.307454+00:00", "meta": {"OBJECT_NAME": "FENGYUN 1C DEB", "OBJECT_ID": "1999-025AZE", "EPOCH": "2025-12-02T09:45:22.153824", "MEAN_MOTION": 14.0872993, "ECCENTRICITY": 0.00624, "INCLINATION": 99.004, "RA_OF_ASC_NODE": 36.766, "ARG_OF_PERICENTER": 287.4902, "MEAN_ANOMALY": 133.6506, "EPHEMERIS_TYPE": 0, "CLASSIFICATION_TYPE": "U", "NORAD_CAT_ID": 30916, "ELEMENT_SET_NO": 999, "REV_AT_EPOCH": 95698, "BSTAR": 0.0015674, "MEAN_MOTION_DOT": 2.705e-05, "MEAN_MOTION_DDOT": 0}, "tle": {"line1": "1 30916U 99025AZE 25336.40650641  .00002705  00000+0  15674-2 0  9997", "line2": "2 30916  99.0040  36.7660 0062400 287.4902 133.6506 14.08729930956989"}}, "geometry": {"type": "Point", "coordinates": [43.4695152269832, -34.97403464088691]}}, {"type": "Feature", "properties": {"norad_id": 30918, "name": "FENGYUN 1C DEB", "group": "fengyun-1c-debris", "lat": 60.718969022273406, "lon": -74.89912316514022, "alt_km": 804.0297770923053, "timestamp": "2025-12-02T17:49:12.307464+00:00", "meta": {"OBJECT_NAME": "FENGYUN 1C DEB", "OBJECT_ID": "1999-025AZG", "EPOCH": "2025-12-01T07:00:31.252896", "MEAN_MOTION": 13.96745783, "ECCENTRICITY": 0.01585842, "INCLINATION": 98.4159, "RA_OF_ASC_NODE": 88.4644, "ARG_OF_PERICENTER": 157.2538, "MEAN_ANOMALY": 232.516, "EPHEMERIS_TYPE": 0, "CLASSIFICATION_TYPE": "U", "NORAD_CAT_ID": 30918, "ELEMENT_SET_NO": 999, "REV_AT_EPOCH": 94893, "BSTAR": 0.0013586348, "MEAN_MOTION_DOT": 2.06e-05, "MEAN_MOTION_DDOT": 0}, "tle": {"line1": "1 30918U 99025AZG 25335.29202839  .00002060  00000+0  13586-2 0  9991", "line2": "2 30918  98.4159  88.4644 0158584 157.2538 232.5160 13.96745783948930"}}, "geometry": {"type": "Point", "coordinates": [-74.89912316514022, 60.718969022273406]}}, {"type": "Feature", "properties": {"norad_id": 30920, "name": "FENGYUN 1C DEB", "group": "fengyun-1c-debris", "lat": 32.7136103443821, "lon": 112.22377333969574, "alt_km": 840.1810810529096, "timestamp": "2025-12-02T17:49:12.307474+00:00", "meta": {"OBJECT_NAME": "FENGYUN 1C DEB", "OBJECT_ID": "1999-025AZJ", "EPOCH": "2025-12-02T05:47:40.685568", "MEAN_MOTION": 14.16344905, "ECCENTRICITY": 0.0111833, "INCLINATION": 98.9192, "RA_OF_ASC_NODE": 117.5111, "ARG_OF_PERICENTER": 128.5233, "MEAN_ANOMALY": 232.6031, "EPHEMERIS_TYPE": 0, "CLASSIFICATION_TYPE": "U", "NORAD_CAT_ID": 30920, "ELEMENT_SET_NO": 999, "REV_AT_EPOCH": 94945, "BSTAR": 0.0049956, "MEAN_MOTION_DOT": 0.0001051, "MEAN_MOTION_DDOT": 0}, "tle": {"line1": "1 30920U 99025AZJ 25336.24144312  .00010510  00000+0  49956-2 0  9990", "line2": "2 30920  98.9192 117.5111 0111833 128.5233 232.6031 14.16344905949457"}}, "geometry": {"type": "Point", "coordinates": [112.22377333969574, 32.7136103443821]}}, {"type": "Feature", "properties": {"norad_id": 30921, "name": "FENGYUN 1C DEB", "group": "fengyun-1c-debris", "lat": 59.36499474966404, "lon": 48.7778723945765, "alt_km": 764.8722131746626, "timestamp": "2025-12-02T17:49:12.307484+00:00", "meta": {"OBJECT_NAME": "FENGYUN 1C DEB", "OBJECT_ID": "1999-025AZK", "EPOCH": "2025-12-02T04:24:03.790080", "MEAN_MOTION": 14.32570692, "ECCENTRICITY": 0.00175994, "INCLINATION": 98.844, "RA_OF_ASC_NODE": 63.4498, "ARG_OF_PERICENTER": 70.4966, "MEAN_ANOMALY": 348.211, "EPHEMERIS_TYPE": 0, "CLASSIFICATION_TYPE": "U", "NORAD_CAT_ID": 30921, "ELEMENT_SET_NO": 999, "REV_AT_EPOCH": 96673, "BSTAR": 0.0020621203, "MEAN_MOTION_DOT": 5.564e-05, "MEAN_MOTION_DDOT": 0}, "tle": {"line1": "1 30921U 99025AZK 25336.18337720  .00005564  00000+0  20621-2 0  9992", "line2": "2 30921  98.8440  63.4498 0017599  70.4966 348.2110 14.32570692966736"}}, "geometry": {"type": "Point", "coordinates": [48.7778723945765, 59.36499474966404]}}, {"type": "Feature", "properties": {"norad_id": 30922, "name": "FENGYUN 1C DEB", "group": "fengyun-1c-debris", "lat": -13.540386550001644, "lon": 170.7665131591152, "alt_km": 842.7185991826318, "timestamp": "2025-12-02T17:49:12.307494+00:00", "meta": {"OBJECT_NAME": "FENGYUN 1C DEB", "OBJECT_ID": "1999-025AZL", "EPOCH": "2025-12-02T12:32:56.439744", "MEAN_MOTION": 14.17417772, "ECCENTRICITY": 0.001485, "INCLINATION": 98.6411, "RA_OF_ASC_NODE": 352.6517, "ARG_OF_PERICENTER": 81.4914, "MEAN_ANOMALY": 71.8675, "EPHEMERIS_TYPE": 0, "CLASSIFICATION_TYPE": "U", "NORAD_CAT_ID": 30922, "ELEMENT_SET_NO": 999, "REV_AT_EPOCH": 96419, "BSTAR": 0.0007978, "MEAN_MOTION_DOT": 1.575e-05, "MEAN_MOTION_DDOT": 0}, "tle": {"line1": "1 30922U 99025AZL 25336.52287546  .00001575  00000+0  79780-3 0  9990", "line2": "2 30922  98.6411 352.6517 0014850  81.4914  71.8675 14.17417772964195"}}, "geometry": {"type": "Point", "coordinates": [170.7665131591152, -13.540386550001644]}}, {"type": "Feature", "properties": {"norad_id": 30925, "name": "FENGYUN 1C DEB", "group": "fengyun-1c-debris", "lat": 58.10489639172454, "lon": -57.34345093255134, "alt_km": 762.6718014938351, "timestamp": "2025-12-02T17:49:12.307505+00:00", "meta": {"OBJECT_NAME": "FENGYUN 1C DEB", "OBJECT_ID": "1999-025AZP", "EPOCH": "2025-12-02T07:33:36.546048", "MEAN_MOTION": 14.42841359, "ECCENTRICITY": 0.0032682, "INCLINATION": 98.8823, "RA_OF_ASC_NODE": 107.6578, "ARG_OF_PERICENTER": 267.6181, "MEAN_ANOMALY": 154.0428, "EPHEMERIS_TYPE": 0, "CLASSIFICATION_TYPE": "U", "NORAD_CAT_ID": 30925, "ELEMENT_SET_NO": 999, "REV_AT_EPOCH": 96922, "BSTAR": 0.0029562, "MEAN_MOTION_DOT": 9.896e-05, "MEAN_MOTION_DDOT": 0}, "tle": {"line1": "1 30925U 99025AZP 25336.31500632  .00009896  00000+0  29562-2 0  9990", "line2": "2 30925  98.8823 107.6578 0032682 267.6181 154.0428 14.42841359969228"}}, "geometry": {"type": "Point", "coordinates": [-57.34345093255134, 58.10489639172454]}}, {"type": "Feature", "properties": {"norad_id": 30926, "name": "FENGYUN 1C DEB", "group": "fengyun-1c-debris", "lat": 45.4978095456016, "lon": -92.70538084323249, "alt_km": 481.0934656485206, "timestamp": "2025-12-02T17:49:12.307515+00:00", "meta": {"OBJECT_NAME": "FENGYUN 1C DEB", "OBJECT_ID": "1999-025AZQ", "EPOCH": "2025-12-01T19:02:32.350272", "MEAN_MOTION": 14.89123668, "ECCENTRICITY": 0.01669943, "INCLINATION": 98.8004, "RA_OF_ASC_NODE": 275.3096, "ARG_OF_PERICENTER": 56.7453, "MEAN_ANOMALY": 304.9638, "EPHEMERIS_TYPE": 0, "CLASSIFICATION_TYPE": "U", "NORAD_CAT_ID": 30926, "ELEMENT_SET_NO": 999, "REV_AT_EPOCH": 604, "BSTAR": 0.00056587813, "MEAN_MOTION_DOT": 6.865e-05, "MEAN_MOTION_DDOT": 0}, "tle": {"line1": "1 30926U 99025AZQ 25335.79342998  .00006865  00000+0  56588-3 0  9993", "line2": "2 30926  98.8004 275.3096 0166994  56.7453 304.9638 14.89123668  6049"}}, "geometry": {"type": "Point", "coordinates": [-92.70538084323249, 45.4978095456016]}}, {"type": "Feature", "properties": {"norad_id": 30927, "name": "FENGYUN 1C DEB", "group": "fengyun-1c-debris", "lat": -67.44962411505074, "lon": -165.90098204806887, "alt_km": 928.9629776185857, "timestamp": "2025-12-02T17:49:12.307525+00:00", "meta": {"OBJECT_NAME": "FENGYUN 1C DEB", "OBJECT_ID": "1999-025AZR", "EPOCH": "2025-12-01T03:08:37.115232", "MEAN_MOTION": 14.08879323, "ECCENTRICITY": 0.00989644, "INCLINATION": 99.1831, "RA_OF_ASC_NODE": 35.3851, "ARG_OF_PERICENTER": 38.9072, "MEAN_ANOMALY": 321.9165, "EPHEMERIS_TYPE": 0, "CLASSIFICATION_TYPE": "U", "NORAD_CAT_ID": 30927, "ELEMENT_SET_NO": 999, "REV_AT_EPOCH": 95520, "BSTAR": 0.0016313898, "MEAN_MOTION_DOT": 2.904e-05, "MEAN_MOTION_DDOT": 0}, "tle": {"line1": "1 30927U 99025AZR 25335.13098513  .00002904  00000+0  16314-2 0  9995", "line2": "2 30927  99.1831  35.3851 0098964  38.9072 321.9165 14.08879323955207"}}, "geometry": {"type": "Point", "coordinates": [-165.90098204806887, -67.44962411505074]}}]}